[{"OBJECT_NAME":"GAOFEN-5 01","OBJECT_ID":"2018-043A","EPOCH":"2026-03-09T22:22:27.309792","MEAN_MOTION":14.60523795,"ECCENTRICITY":0.00026321,"INCLINATION":98.4468,"RA_OF_ASC_NODE":38.4968,"ARG_OF_PERICENTER":51.5893,"MEAN_ANOMALY":308.5542,"EPHEMERIS_TYPE":0,"CLASSIFICATION_TYPE":"U","NORAD_CAT_ID":43461,"ELEMENT_SET_NO":999,"REV_AT_EPOCH":41720,"BSTAR":0.00013017918,"MEAN_MOTION_DOT":5.83e-6,"MEAN_MOTION_DDOT":0},{"OBJECT_NAME":"CZ-4C DEB","OBJECT_ID":"2013-065E","EPOCH":"2026-03-09T20:36:03.964608","MEAN_MOTION":14.48253424,"ECCENTRICITY":0.01350067,"INCLINATION":100.5278,"RA_OF_ASC_NODE":36.0435,"ARG_OF_PERICENTER":70.4821,"MEAN_ANOMALY":291.089,"EPHEMERIS_TYPE":0,"CLASSIFICATION_TYPE":"U","NORAD_CAT_ID":43628,"ELEMENT_SET_NO":999,"REV_AT_EPOCH":38974,"BSTAR":0.0046219403,"MEAN_MOTION_DOT":0.00019349,"MEAN_MOTION_DDOT":0}]
